[{"OBJECT_NAME":"STARLINK-31001","OBJECT_ID":"2023-191V","EPOCH":"2026-03-09T02:33:56.668896","MEAN_MOTION":15.26736187,"ECCENTRICITY":0.00016176,"INCLINATION":43.0014,"RA_OF_ASC_NODE":106.5046,"ARG_OF_PERICENTER":286.3592,"MEAN_ANOMALY":73.7082,"EPHEMERIS_TYPE":0,"CLASSIFICATION_TYPE":"U","NORAD_CAT_ID":58527,"ELEMENT_SET_NO":999,"REV_AT_EPOCH":12538,"BSTAR":0.00027286212,"MEAN_MOTION_DOT":7.065e-5,"MEAN_MOTION_DDOT":0},{"OBJECT_NAME":"FLOCK 4G-14","OBJECT_ID":"2025-009BL","EPOCH":"2026-03-09T18:12:31.432032","MEAN_MOTION":15.27197201,"ECCENTRICITY":0.00030064,"INCLINATION":97.4064,"RA_OF_ASC_NODE":151.1836,"ARG_OF_PERICENTER":318.3639,"MEAN_ANOMALY":41.7371,"EPHEMERIS_TYPE":0,"CLASSIFICATION_TYPE":"U","NORAD_CAT_ID":62667,"ELEMENT_SET_NO":999,"REV_AT_EPOCH":6371,"BSTAR":0.00042675627,"MEAN_MOTION_DOT":0.0001131,"MEAN_MOTION_DDOT":0}]
