STARLINK-31001          
1 58527U 23191V   26068.10690589  .00007065  00000+0  27286-3 0  9998
2 58527  43.0014 106.5046 0001617 286.3592  73.7082 15.26736187125385
FLOCK 4G-14             
1 62667U 25009BL  26068.75869712  .00011310  00000+0  42676-3 0  9993
2 62667  97.4064 151.1836 0003006 318.3639  41.7371 15.27197201 63711
